$$SOE
2460721.500000000, A.D. 2025-Feb-15 00:00:00.0000, -2.839927205951793E+08, 3.472813538775560E+08, 6.902196549589768E+06,
2460728.500000000, A.D. 2025-Feb-22 00:00:00.0000, -2.931669665726025E+08, 3.419942980840776E+08, 6.869252161935955E+06,
2460735.500000000, A.D. 2025-Mar-01 00:00:00.0000, -3.021854782986712E+08, 3.365256764229736E+08, 6.832657990463451E+06,
2460742.500000000, A.D. 2025-Mar-08 00:00:00.0000, -3.110454128290807E+08, 3.308805584110829E+08, 6.792477288034275E+06,
2460749.500000000, A.D. 2025-Mar-15 00:00:00.0000, -3.197440923562630E+08, 3.250640022828717E+08, 6.748773992587313E+06,
2460756.500000000, A.D. 2025-Mar-22 00:00:00.0000, -3.282790016741924E+08, 3.190810508170074E+08, 6.701612874505907E+06,
2460763.500000000, A.D. 2025-Mar-29 00:00:00.0000, -3.366477842630884E+08, 3.129367252544345E+08, 6.651059380652383E+06,
2460770.500000000, A.D. 2025-Apr-05 00:00:00.0000, -3.448482366851382E+08, 3.066360204317887E+08, 6.597179401367888E+06,
2460777.500000000, A.D. 2025-Apr-12 00:00:00.0000, -3.528783032334259E+08, 3.001839012218052E+08, 6.540039144956753E+06,
2460784.500000000, A.D. 2025-Apr-19 00:00:00.0000, -3.607360710340133E+08, 2.935852993868067E+08, 6.479705064239040E+06,
2460791.500000000, A.D. 2025-Apr-26 00:00:00.0000, -3.684197653402454E+08, 2.868451106280357E+08, 6.416243793256626E+06,
2460798.500000000, A.D. 2025-May-03 00:00:00.0000, -3.759277449156252E+08, 2.799681918354535E+08, 6.349722084922403E+06,
2460805.500000000, A.D. 2025-May-10 00:00:00.0000, -3.832584974858995E+08, 2.729593585324441E+08, 6.280206747373670E+06,
2460812.500000000, A.D. 2025-May-17 00:00:00.0000, -3.904106352318646E+08, 2.658233824605831E+08, 6.207764572019011E+06,
2460819.500000000, A.D. 2025-May-24 00:00:00.0000, -3.973828901561304E+08, 2.585649892365559E+08, 6.132462232631043E+06,
2460826.500000000, A.D. 2025-May-31 00:00:00.0000, -4.041741089121615E+08, 2.511888563789964E+08, 6.054366142378137E+06,
2460833.500000000, A.D. 2025-Jun-07 00:00:00.0000, -4.107832475020276E+08, 2.436996128970363E+08, 5.973542403842852E+06,
2460840.500000000, A.D. 2025-Jun-14 00:00:00.0000, -4.172093682130713E+08, 2.361018397617344E+08, 5.890057014164820E+06,
2460847.500000000, A.D. 2025-Jun-21 00:00:00.0000, -4.234516375808465E+08, 2.284000679786287E+08, 5.803975946164697E+06,
2460854.500000000, A.D. 2025-Jun-28 00:00:00.0000, -4.295093222509897E+08, 2.205987760145139E+08, 5.715364962763935E+06,
2460861.500000000, A.D. 2025-Jul-05 00:00:00.0000, -4.353817842585655E+08, 2.127023887222594E+08, 5.624289480007365E+06,
2460868.500000000, A.D. 2025-Jul-12 00:00:00.0000, -4.410684769191248E+08, 2.047152769478378E+08, 5.530814521903634E+06,
2460875.500000000, A.D. 2025-Jul-19 00:00:00.0000, -4.465689411436130E+08, 1.966417572352718E+08, 5.435004702565759E+06,
2460882.500000000, A.D. 2025-Jul-26 00:00:00.0000, -4.518828019676005E+08, 1.884860915636041E+08, 5.336924211734682E+06,
2460889.500000000, A.D. 2025-Aug-02 00:00:00.0000, -4.570097652294503E+08, 1.802524871283292E+08, 5.236636799447015E+06,
2460896.500000000, A.D. 2025-Aug-09 00:00:00.0000, -4.619496143737824E+08, 1.719450961439347E+08, 5.134205756519355E+06,
2460903.500000000, A.D. 2025-Aug-16 00:00:00.0000, -4.667022073027701E+08, 1.635680155961319E+08, 5.029693878671184E+06,
2460910.500000000, A.D. 2025-Aug-23 00:00:00.0000, -4.712674729817590E+08, 1.551252869525147E+08, 4.923163388885252E+06,
2460917.500000000, A.D. 2025-Aug-30 00:00:00.0000, -4.756454074690047E+08, 1.466208965381759E+08, 4.814675846309155E+06,
2460924.500000000, A.D. 2025-Sep-06 00:00:00.0000, -4.798360707865567E+08, 1.380587775691578E+08, 4.704292253626436E+06,
2460931.500000000, A.D. 2025-Sep-13 00:00:00.0000, -4.838395863028471E+08, 1.294428113543140E+08, 4.592073313278735E+06,
2460938.500000000, A.D. 2025-Sep-20 00:00:00.0000, -4.876561393526678E+08, 1.207768260160360E+08, 4.478079398063369E+06,
2460945.500000000, A.D. 2025-Sep-27 00:00:00.0000, -4.912859740327061E+08, 1.120645958357556E+08, 4.362370393543422E+06,
2460952.500000000, A.D. 2025-Oct-04 00:00:00.0000, -4.947293901870565E+08, 1.033098417570388E+08, 4.245005641381353E+06,
2460959.500000000, A.D. 2025-Oct-11 00:00:00.0000, -4.979867409554358E+08, 9.451623209822336E+07, 4.126043940711915E+06,
2460966.500000000, A.D. 2025-Oct-18 00:00:00.0000, -5.010584305986658E+08, 8.568738319638947E+07, 4.005543559028689E+06,
2460973.500000000, A.D. 2025-Oct-25 00:00:00.0000, -5.039449124588992E+08, 7.682685999007192E+07, 3.883562240612127E+06,
2460980.500000000, A.D. 2025-Nov-01 00:00:00.0000, -5.066466870115605E+08, 6.793817655236113E+07, 3.760157210040562E+06,
2460987.500000000, A.D. 2025-Nov-08 00:00:00.0000, -5.091642999709183E+08, 5.902479653880534E+07, 3.635385164885286E+06,
2460994.500000000, A.D. 2025-Nov-15 00:00:00.0000, -5.114983402985663E+08, 5.009013348722984E+07, 3.509302239013400E+06,
2461001.500000000, A.D. 2025-Nov-22 00:00:00.0000, -5.136494377101482E+08, 4.113755118554462E+07, 3.381963917261664E+06,
2461008.500000000, A.D. 2025-Nov-29 00:00:00.0000, -5.156182598320886E+08, 3.217036523914282E+07, 3.253425007964401E+06,
2461015.500000000, A.D. 2025-Dec-06 00:00:00.0000, -5.174055112847653E+08, 2.319184569900648E+07, 3.123739870750931E+06,
2461022.500000000, A.D. 2025-Dec-13 00:00:00.0000, -5.190119342580174E+08, 1.420521737822750E+07, 2.992962584073869E+06,
2461029.500000000, A.D. 2025-Dec-20 00:00:00.0000, -5.204383070839754E+08, 5.213658879254662E+06, 2.861146815557063E+06,
2461036.500000000, A.D. 2025-Dec-27 00:00:00.0000, -5.216854418771995E+08, -3.779697078244764E+06, 2.728345705423989E+06,
2461043.500000000, A.D. 2026-Jan-03 00:00:00.0000, -5.227541826982336E+08, -1.277176264678484E+07, 2.594611846476241E+06,
2461050.500000000, A.D. 2026-Jan-10 00:00:00.0000, -5.236454041289380E+08, -2.175949383845874E+07, 2.459997295002257E+06,
2461057.500000000, A.D. 2026-Jan-17 00:00:00.0000, -5.243600100251887E+08, -3.073988960296326E+07, 2.324553583814943E+06,
2461064.500000000, A.D. 2026-Jan-24 00:00:00.0000, -5.248989323668408E+08, -3.970999097437448E+07, 2.188331732199954E+06,
2461071.500000000, A.D. 2026-Jan-31 00:00:00.0000, -5.252631301792963E+08, -4.866688029481417E+07, 2.051382250105795E+06,
2461078.500000000, A.D. 2026-Feb-07 00:00:00.0000, -5.254535884630718E+08, -5.760768057300319E+07, 1.913755126338765E+06,
2461085.500000000, A.D. 2026-Feb-14 00:00:00.0000, -5.254713168763177E+08, -6.652955499352399E+07, 1.775499776387345E+06,
2461092.500000000, A.D. 2026-Feb-21 00:00:00.0000, -5.253173477806921E+08, -7.542970600020990E+07, 1.636664961576574E+06,
2461099.500000000, A.D. 2026-Feb-28 00:00:00.0000, -5.249927347332854E+08, -8.430537280082083E+07, 1.497298873381771E+06,
2461106.500000000, A.D. 2026-Mar-07 00:00:00.0000, -5.244985534815696E+08, -9.315382924409346E+07, 1.357449412348386E+06,
2461113.500000000, A.D. 2026-Mar-14 00:00:00.0000, -5.238359026849826E+08, -1.019723844027100E+08, 1.217164216402173E+06,
2461120.500000000, A.D. 2026-Mar-21 00:00:00.0000, -5.230059025786454E+08, -1.107583829641183E+08, 1.076490512007050E+06,
2461127.500000000, A.D. 2026-Mar-28 00:00:00.0000, -5.220096935857409E+08, -1.195092044008194E+08, 9.354750567125306E+05,
2461134.500000000, A.D. 2026-Apr-04 00:00:00.0000, -5.208484354799255E+08, -1.282222618868667E+08, 7.941641496508941E+05,
2461141.500000000, A.D. 2026-Apr-11 00:00:00.0000, -5.195233068223550E+08, -1.368950013216524E+08, 6.526036555501446E+05,
2461148.500000000, A.D. 2026-Apr-18 00:00:00.0000, -5.180355045126458E+08, -1.455249004685035E+08, 5.108390272716433E+05,
2461155.500000000, A.D. 2026-Apr-25 00:00:00.0000, -5.163862434063662E+08, -1.541094681941200E+08, 3.689153240701258E+05,
2461162.500000000, A.D. 2026-May-02 00:00:00.0000, -5.145767559667881E+08, -1.626462438392338E+08, 2.268772205316424E+05,
2461169.500000000, A.D. 2026-May-09 00:00:00.0000, -5.126082918248813E+08, -1.711327967874250E+08, 8.476898950966448E+04,
2461176.500000000, A.D. 2026-May-16 00:00:00.0000, -5.104821168683481E+08, -1.795667260942928E+08, -5.736556418073177E+04,
2461183.500000000, A.D. 2026-May-23 00:00:00.0000, -5.081995118066093E+08, -1.879456591549356E+08, -1.994831404455751E+05,
2461190.500000000, A.D. 2026-May-30 00:00:00.0000, -5.057617722888998E+08, -1.962672490905773E+08, -3.415407342536151E+05,
2461197.500000000, A.D. 2026-Jun-06 00:00:00.0000, -5.031702108922185E+08, -2.045291741286106E+08, -4.834954182153344E+05,
2461204.500000000, A.D. 2026-Jun-13 00:00:00.0000, -5.004261573133156E+08, -2.127291387772633E+08, -6.253044375407100E+05,
2461211.500000000, A.D. 2026-Jun-20 00:00:00.0000, -4.975309572648980E+08, -2.208648738678818E+08, -7.669253324042857E+05,
2461218.500000000, A.D. 2026-Jun-27 00:00:00.0000, -4.944859717724325E+08, -2.289341358039114E+08, -9.083159598940313E+05,
2461225.500000000, A.D. 2026-Jul-04 00:00:00.0000, -4.912925768696517E+08, -2.369347057913368E+08, -1.049434479129776E+06,
2461232.500000000, A.D. 2026-Jul-11 00:00:00.0000, -4.879521634372181E+08, -2.448643891827805E+08, -1.190239333914176E+06,
2461239.500000000, A.D. 2026-Jul-18 00:00:00.0000, -4.844661370905716E+08, -2.527210149100771E+08, -1.330689239600882E+06,
2461246.500000000, A.D. 2026-Jul-25 00:00:00.0000, -4.808359180917219E+08, -2.605024350033554E+08, -1.470743176464587E+06,
2461253.500000000, A.D. 2026-Aug-01 00:00:00.0000, -4.770629412366419E+08, -2.682065242454827E+08, -1.610360398160145E+06,
2461260.500000000, A.D. 2026-Aug-08 00:00:00.0000, -4.731486555034934E+08, -2.758311799981604E+08, -1.749500478097171E+06,
2461267.500000000, A.D. 2026-Aug-15 00:00:00.0000, -4.690945230467193E+08, -2.833743217491956E+08, -1.888123395097017E+06,
2461274.500000000, A.D. 2026-Aug-22 00:00:00.0000, -4.649020182976590E+08, -2.908338891592106E+08, -2.026189488762498E+06,
2461281.500000000, A.D. 2026-Aug-29 00:00:00.0000, -4.605726294599981E+08, -2.982078399802865E+08, -2.163659186836198E+06,
2461288.500000000, A.D. 2026-Sep-05 00:00:00.0000, -4.561078602661967E+08, -3.054941507150144E+08, -2.300492934681743E+06,
$$EOE